[{"OBJECT_NAME":"SENTINEL-3B","OBJECT_ID":"2018-039A","EPOCH":"2026-03-09T22:56:26.429280","MEAN_MOTION":14.26736439,"ECCENTRICITY":9.653e-5,"INCLINATION":98.6227,"RA_OF_ASC_NODE":137.8858,"ARG_OF_PERICENTER":127.5232,"MEAN_ANOMALY":232.6036,"EPHEMERIS_TYPE":0,"CLASSIFICATION_TYPE":"U","NORAD_CAT_ID":43437,"ELEMENT_SET_NO":999,"REV_AT_EPOCH":40997,"BSTAR":7.6183716e-5,"MEAN_MOTION_DOT":1.41e-6,"MEAN_MOTION_DDOT":0},{"OBJECT_NAME":"FENGYUN 1C DEB","OBJECT_ID":"1999-025DEZ","EPOCH":"2026-03-03T08:21:23.189184","MEAN_MOTION":14.04112315,"ECCENTRICITY":0.01641268,"INCLINATION":98.7099,"RA_OF_ASC_NODE":212.7758,"ARG_OF_PERICENTER":173.3174,"MEAN_ANOMALY":187.0237,"EPHEMERIS_TYPE":0,"CLASSIFICATION_TYPE":"U","NORAD_CAT_ID":33664,"ELEMENT_SET_NO":999,"REV_AT_EPOCH":91870,"BSTAR":0.00079059225,"MEAN_MOTION_DOT":1.371e-5,"MEAN_MOTION_DDOT":0}]
